GLOBALSTAR M068         
1 32266U 07048D   25343.88373395 -.00000060  00000+0  24173-3 0  9997
2 32266  51.9868 126.6678 0001843 134.8558  28.9609 12.62835010839758
GLOBALSTAR M079         
1 37188U 10054A   25343.67292690 -.00000086  00000+0  10100-3 0  9994
2 37188  52.0056 325.5800 0000405  12.1916 159.3177 12.62269040698614
GLOBALSTAR M074         
1 37189U 10054B   25343.69957264 -.00000089  00000+0  81709-4 0  9999
2 37189  52.0034 324.7940 0000512  53.8709 118.5366 12.62263984699224
GLOBALSTAR M076         
1 37190U 10054C   25343.72589182 -.00000086  00000+0  97201-4 0  9996
2 37190  52.0047 324.9022 0000572  35.2009 135.6668 12.62267910698942
GLOBALSTAR M077         
1 37191U 10054D   25343.89059833 -.00000066  00000+0  21751-3 0  9994
2 37191  52.0110 300.1475 0000729  12.2608  16.9250 11.68138664699022
GLOBALSTAR M075         
1 37192U 10054E   25343.81804997 -.00000090  00000+0  75502-4 0  9997
2 37192  51.9967   6.7786 0000314 102.2928  69.1458 12.62270303698021
GLOBALSTAR M073         
1 37193U 10054F   25343.78446852 -.00000074  00000+0  16400-3 0  9999
2 37193  52.0068 280.8377 0000715  37.0840 339.5377 12.62265016700012
GLOBALSTAR M083         
1 37739U 11033A   25343.43515902 -.00000078  00000+0  14420-3 0  9992
2 37739  51.9848 230.3894 0000829  58.5302 111.9814 12.62265465668988
GLOBALSTAR M088         
1 37740U 11033B   25343.69111059 -.00000107  00000+0 -19086-4 0  9995
2 37740  52.0193 135.5763 0001064 106.7582 266.6084 12.62270979664567
GLOBALSTAR M091         
1 37741U 11033C   25343.73364286 -.00000095  00000+0  49724-4 0  9990
2 37741  51.9995  98.6930 0000767 125.9952  20.0494 12.62262345665357
GLOBALSTAR M085         
1 37742U 11033D   25343.45360359 -.00000080  00000+0  13141-3 0  9994
2 37742  52.0147  50.6718 0000421 150.9391 222.6564 12.62267203665832
GLOBALSTAR M081         
1 37743U 11033E   25343.91080183 -.00000085  00000+0  10389-3 0  9996
2 37743  51.9975  51.9305 0000357 118.7011  54.0407 12.62270752666034
GLOBALSTAR M089         
1 37744U 11033F   25343.79163537 -.00000080  00000+0  13293-3 0  9990
2 37744  51.9955   6.4892 0000556  78.3274  93.2971 12.62262103666865
GLOBALSTAR M084         
1 38040U 11080A   25343.77673316 -.00000086  00000+0  98253-4 0  9997
2 38040  52.0004 233.9172 0001185  65.5030 337.2452 12.62266428644840
GLOBALSTAR M080         
1 38041U 11080B   25343.22356891 -.00000059  00000+0  24957-3 0  9993
2 38041  52.0052 237.2533 0000637  97.7205  80.1466 12.62264684644890
GLOBALSTAR M082         
1 38042U 11080C   25343.83623979 -.00000092  00000+0  65056-4 0  9998
2 38042  52.0051 190.8693 0000855  98.9303 273.9720 12.62266122645687
GLOBALSTAR M092         
1 38043U 11080D   25343.60712024 -.00000072  00000+0  17736-3 0  9993
2 38043  52.0093 281.9527 0000658  58.3198 112.4822 12.62268167644102
GLOBALSTAR M090         
1 38044U 11080E   25343.86295531 -.00000095  00000+0  48184-4 0  9998
2 38044  52.0097 184.6832 0000911  82.0191 291.2748 12.62265360645807
GLOBALSTAR M086         
1 38045U 11080F   25343.88726051 -.00000087  00000+0  91609-4 0  9998
2 38045  51.9871 184.8471 0001332  32.8265 340.4336 12.62280996645756
GLOBALSTAR M097         
1 39072U 13005A   25343.75406149 -.00000103  00000+0  45253-5 0  9991
2 39072  52.0043  99.9850 0000661 107.8761 252.2178 12.62267798592980
GLOBALSTAR M093         
1 39073U 13005B   25343.72798262 -.00000088  00000+0  86906-4 0  9990
2 39073  52.0104  93.3402 0000419 117.0522 243.0387 12.62271012592938
GLOBALSTAR M094         
1 39074U 13005C   25343.33189727 -.00000084  00000+0  10763-3 0  9991
2 39074  51.9977   8.8528 0000048  71.4815 288.6057 12.62265265594496
GLOBALSTAR M096         
1 39075U 13005D   25343.66170101 -.00000080  00000+0  13017-3 0  9995
2 39075  52.0089  56.4984 0000384 141.3438 218.7457 12.62269262593453
GLOBALSTAR M078         
1 39076U 13005E   25343.71491500 -.00000112  00000+0 -48194-4 0  9993
2 39076  51.9848 140.6106 0001041 154.9057 205.1860 12.62272376592081
GLOBALSTAR M095         
1 39077U 13005F   25343.82031397 -.00000108  00000+0 -22102-4 0  9996
2 39077  52.0055 137.6241 0000689 123.9193 236.1739 12.62267229591959
GLOBALSTAR M087         
1 52888U 22064A   25343.83332742 -.00000064  00000+0  22132-3 0  9997
2 52888  52.0007 278.9312 0000491  40.9841 319.1062 12.62261173167220
